[{"OBJECT_NAME":"STARLINK-5755","OBJECT_ID":"2023-020AH","EPOCH":"2026-03-08T05:04:17.677344","MEAN_MOTION":15.02545506,"ECCENTRICITY":0.00010617,"INCLINATION":43.0059,"RA_OF_ASC_NODE":359.9807,"ARG_OF_PERICENTER":282.3198,"MEAN_ANOMALY":77.7525,"EPHEMERIS_TYPE":0,"CLASSIFICATION_TYPE":"U","NORAD_CAT_ID":55600,"ELEMENT_SET_NO":999,"REV_AT_EPOCH":16884,"BSTAR":0.00011301118,"MEAN_MOTION_DOT":1.324e-5,"MEAN_MOTION_DDOT":0},{"OBJECT_NAME":"QPS-SAR-8 (AMATERU-IV)","OBJECT_ID":"2024-149CC","EPOCH":"2026-03-09T16:54:01.213344","MEAN_MOTION":15.03026697,"ECCENTRICITY":0.0003873,"INCLINATION":97.6699,"RA_OF_ASC_NODE":148.7511,"ARG_OF_PERICENTER":93.15,"MEAN_ANOMALY":267.0168,"EPHEMERIS_TYPE":0,"CLASSIFICATION_TYPE":"U","NORAD_CAT_ID":60542,"ELEMENT_SET_NO":999,"REV_AT_EPOCH":8532,"BSTAR":0.00061811246,"MEAN_MOTION_DOT":8.268e-5,"MEAN_MOTION_DDOT":0}]
